[{"OBJECT_NAME":"STARLINK-35278","OBJECT_ID":"2025-224W","EPOCH":"2026-03-09T06:02:35.810304","MEAN_MOTION":15.30219702,"ECCENTRICITY":0.00013841,"INCLINATION":53.1608,"RA_OF_ASC_NODE":13.6297,"ARG_OF_PERICENTER":95.9963,"MEAN_ANOMALY":264.1196,"EPHEMERIS_TYPE":0,"CLASSIFICATION_TYPE":"U","NORAD_CAT_ID":65902,"ELEMENT_SET_NO":999,"REV_AT_EPOCH":2480,"BSTAR":0.0010090938,"MEAN_MOTION_DOT":0.00029665,"MEAN_MOTION_DDOT":0},{"OBJECT_NAME":"KUIPER-00175","OBJECT_ID":"2025-301C","EPOCH":"2026-03-09T23:30:37.840032","MEAN_MOTION":15.30996371,"ECCENTRICITY":0.00022792,"INCLINATION":51.8781,"RA_OF_ASC_NODE":63.6978,"ARG_OF_PERICENTER":50.5695,"MEAN_ANOMALY":309.549,"EPHEMERIS_TYPE":0,"CLASSIFICATION_TYPE":"U","NORAD_CAT_ID":67135,"ELEMENT_SET_NO":999,"REV_AT_EPOCH":1385,"BSTAR":0.00066732304,"MEAN_MOTION_DOT":0.00019968,"MEAN_MOTION_DDOT":0}]
